GLOBALSTAR M075         
1 37192U 10054E   25089.63730293 -.00000109  00000+0 -31683-4 0  9995
2 37192  51.9951  60.6996 0000363  79.3963  92.1251 12.62262742665921
GLOBALSTAR M073         
1 37193U 10054F   25089.85496676 -.00000068  00000+0  20075-3 0  9999
2 37193  52.0083 333.8033 0000773  92.9871 346.1546 12.62269642667940
GLOBALSTAR M083         
1 37739U 11033A   25089.85377844 -.00000065  00000+0  21882-3 0  9992
2 37739  51.9854 282.6437 0000934  89.1293 285.8330 12.62261802636962
GLOBALSTAR M088         
1 37740U 11033B   25089.78396094 -.00000071  00000+0  18548-3 0  9996
2 37740  51.9725 188.4104 0000615 110.5186  67.7547 12.62264776632495
GLOBALSTAR M091         
1 37741U 11033C   25089.87483654 -.00000067  00000+0  20527-3 0  9991
2 37741  51.9982 151.5507 0000581  92.2251  78.3699 12.62266634633290
GLOBALSTAR M085         
1 37742U 11033D   25089.78241052 -.00000095  00000+0  50301-4 0  9991
2 37742  51.9849 102.9378 0000480  81.6401  88.8919 12.62266971633796
GLOBALSTAR M081         
1 37743U 11033E   25089.80907419 -.00000087  00000+0  93381-4 0  9997
2 37743  51.9939 105.5953 0000526 104.9028  66.9398 12.62262367633940
GLOBALSTAR M089         
1 37744U 11033F   25089.17978462 -.00000107  00000+0 -18157-4 0  9996
2 37744  51.9931  61.7522 0000258 119.1226 251.9520 12.62267925634712
